MACSAT 2 (M 2)          
1 20608U 90043B   12352.71348016  .00000430  00000-0  59527-4 0  8285
2 20608  89.7474  40.6952 0095679  61.4013 299.6792 14.72990081211610
TUBSAT A                
1 21577U 91050D   12352.55889806 -.00000010  00000-0  11554-4 0  5414
2 21577  98.6365 309.5003 0006092 183.5234 176.5909 14.38823986124156
S80/T                   
1 22078U 92052C   12350.90750524 -.00000037  00000-0  10000-3 0  2561
2 22078  66.0815 162.8150 0004975   3.5194 356.5858 12.86752785956132
HEALTHSAT 1             
1 22827U 93061E   12351.90525227  .00000136  00000-0  68948-4 0  3010
2 22827  98.5913 294.6202 0009851  68.9611 291.2623 14.30519737  3016
TUBSAT B                
1 22970U 94003B   12352.47355390  .00000051  00000-0  10000-3 0   570
2 22970  82.5596 326.7475 0014912 292.7764  67.1739 13.16930875908367
CERISE                  
1 23606U 95033B   12352.54594630  .00002130  00000-0  23976-3 0  9464
2 23606  98.3552 185.3618 0004831 283.0376  77.0300 14.87820555941835
UPM/LBSAT               
1 23607U 95033C   12352.48603444  .00000417  00000-0  68614-4 0  1605
2 23607  98.2136 107.8560 0006748 122.6360 237.5499 14.75812686937647
FAISAT 2V               
1 24954U 97052B   12352.54324527  .00000048  00000-0  31159-4 0  6545
2 24954  82.9222  77.4704 0040406 132.8301 227.6265 13.79759990767089
MUBLCOM                 
1 25736U 99026B   12352.55099356  .00000826  00000-0  24348-3 0  7936
2 25736  97.6714 185.1589 0006563  79.9479 280.2455 14.45780072715547
RUBIN-3 & SL-8 R/B      
1 27561U 02054C   12352.41531381  .00000385  00000-0  10001-3 0  7710
2 27561  98.0225 141.0089 0046394 225.2137 134.5289 14.54306077533392
APRIZESAT 2             
1 28366U 04025A   12352.36147388  .00000189  00000-0  75471-4 0  3652
2 28366  98.2476 296.2706 0107965 287.2454  71.6940 14.35924461443776
SAUDICOMSAT 1           
1 28369U 04025D   12352.55615670  .00000276  00000-0  79733-4 0  4248
2 28369  97.9757 339.7091 0034930  57.7214 302.7365 14.51144453448454
SAUDICOMSAT 2           
1 28370U 04025E   12352.91656951  .00000232  00000-0  75035-4 0  4217
2 28370  98.0796 323.8376 0059561 125.4450 235.2335 14.46227225446990
APRIZESAT 1             
1 28372U 04025G   12352.58351540  .00000156  00000-0  51997-4 0  4090
2 28372  98.0284 330.5949 0048106  91.5413 269.1294 14.48584795447687
NANOSAT-1               
1 28493U 04049B   12352.88612354  .00000609  00000-0  10699-3 0  4272
2 28493  98.3830 358.8958 0004830 159.3107 200.8284 14.71386854429259
SAUDICOMSAT 7           
1 31119U 07012C   12352.99470578  .00000392  00000-0  88724-4 0  7262
2 31119  97.8319  11.1623 0061260 196.9553 162.9604 14.60077718302195
SAUDICOMSAT 6           
1 31121U 07012E   12352.98073577  .00000370  00000-0  89075-4 0  7246
2 31121  97.8484   1.3440 0077567 229.0866 130.3604 14.56920675301553
SAUDICOMSAT 5           
1 31124U 07012H   12352.79791495  .00000407  00000-0  89121-4 0  7315
2 31124  97.8285  16.6077 0053035 181.8594 178.2414 14.61697625302493
SAUDICOMSAT 3           
1 31125U 07012J   12352.79799290  .00000418  00000-0  88749-4 0  7471
2 31125  97.8276  22.0457 0044906 166.9697 193.2679 14.63274970302814
SAUDICOMSAT 4           
1 31127U 07012L   12353.03856544  .00000386  00000-0  89803-4 0  7305
2 31127  97.8398   6.5715 0069130 212.1199 147.5783 14.58594454301893
APRIZESAT 4             
1 35684U 09041D   12352.76662137  .00000563  00000-0  86146-4 0   669
2 35684  98.0595 263.4445 0049215 348.0867  11.9190 14.76916807182516
APRIZESAT 3             
1 35686U 09041F   12352.79759775  .00000937  00000-0  11447-3 0   812
2 35686  98.0990 278.2706 0077073 312.1680  47.3004 14.83820573183339
AISSAT 1                
1 36797U 10035C   12353.22904539  .00000854  00000-0  11463-3 0  6362
2 36797  98.0488  70.8063 0011258 305.4514  54.5675 14.81950329131744
